G91 ;relative
G90 ;absolute
G21
(Программа обработки плиты)
G1 Z10.000000
(Фрезеровка внешнего контура)
T7 M6
S3000 M3
G1 Z5.000000
G1 X0.000000 Y-72.500000
G1 Z-26.000000 feed1150.000000
G1 X0.000000 Y-65.500000
G1 X0.000000 Y-65.500000
f{feed}
G1 X-105.000000 Y-65.500000
G17 ;XY plane
G2 X-110.500000 Y-60.000000 R5.500000
G1 X-110.500000 Y60.000000
G17 ;XY plane
G2 X-105.000000 Y65.500000 R5.500000
G1 X105.000000 Y65.500000
G17 ;XY plane
G2 X110.500000 Y60.000000 R5.500000
G1 X110.500000 Y-60.000000
G17 ;XY plane
G2 X105.000000 Y-65.500000 R5.500000
G1 X0.000000 Y-65.500000
G40
G1 Z5.000000
G1 Z20.000000
M30
