G91 ;relative
G90 ;absolute
G21
(Программа обработки плиты)
G1 Z10.000000
(Центровка 12 отверстий)
T1 M6
S1430 M3
G1 Z5.000000
G1 X-18.000000 Y-40.000000
F60
G1 Z-2.000000
G1 Z5.000000
G1 Z5.000000
G1 X-18.000000 Y40.000000
F60
G1 Z-2.000000
G1 Z5.000000
G1 Z5.000000
G1 X67.500000 Y47.500000
F60
G1 Z-2.000000
G1 Z5.000000
G1 Z5.000000
G1 X67.500000 Y-47.500000
F60
G1 Z-2.000000
G1 Z5.000000
G1 Z5.000000
G1 X-67.500000 Y-47.500000
F60
G1 Z-2.000000
G1 Z5.000000
G1 Z5.000000
G1 X-67.500000 Y47.500000
F60
G1 Z-2.000000
G1 Z5.000000
G1 Z5.000000
G1 X1.500000 Y13.000000
F60
G1 Z-2.000000
G1 Z5.000000
G1 Z5.000000
G1 X1.500000 Y-13.000000
F60
G1 Z-2.000000
G1 Z5.000000
G1 Z5.000000
G1 X-38.500000 Y-13.000000
F60
G1 Z-2.000000
G1 Z5.000000
G1 Z5.000000
G1 X-38.500000 Y13.000000
F60
G1 Z-2.000000
G1 Z5.000000
G1 Z5.000000
G1 X42.500000 Y-47.500000
F60
G1 Z-2.000000
G1 Z5.000000
G1 Z5.000000
G1 X-42.500000 Y47.500000
F60
G1 Z-2.000000
G1 Z5.000000
(Сверление 4 отверстий 10 мм насквозь)
T2 M6
S2800 M3
G1 Z5.000000
G1 X67.500000 Y47.500000
F504
G1 Z-26.000000
G1 Z5.000000
G1 Z5.000000
G1 X67.500000 Y-47.500000
F504
G1 Z-26.000000
G1 Z5.000000
G1 Z5.000000
G1 X-67.500000 Y-47.500000
F504
G1 Z-26.000000
G1 Z5.000000
G1 Z5.000000
G1 X-67.500000 Y47.500000
F504
G1 Z-26.000000
G1 Z5.000000
(Сверление 6 отверстий 9,8 мм насквозь)
T3 M6
S2800 M3
G1 Z5.000000
G1 X1.500000 Y13.000000
F504
G1 Z-26.000000
G1 Z5.000000
G1 Z5.000000
G1 X1.500000 Y-13.000000
F504
G1 Z-26.000000
G1 Z5.000000
G1 Z5.000000
G1 X-38.500000 Y-13.000000
F504
G1 Z-26.000000
G1 Z5.000000
G1 Z5.000000
G1 X-38.500000 Y13.000000
F504
G1 Z-26.000000
G1 Z5.000000
G1 Z5.000000
G1 X42.500000 Y-47.500000
F504
G1 Z-26.000000
G1 Z5.000000
G1 Z5.000000
G1 X-42.500000 Y47.500000
F504
G1 Z-26.000000
G1 Z5.000000
(Сверление 4 отверстий 10,5 мм насквозь)
T4 M6
S1343 M3
G1 Z5.000000
G1 X67.500000 Y47.500000
F1343
G1 Z-26.000000
G1 Z5.000000
G1 Z5.000000
G1 X67.500000 Y-47.500000
F1343
G1 Z-26.000000
G1 Z5.000000
G1 Z5.000000
G1 X-67.500000 Y-47.500000
F1343
G1 Z-26.000000
G1 Z5.000000
G1 Z5.000000
G1 X-67.500000 Y47.500000
F1343
G1 Z-26.000000
G1 Z5.000000
(Фрезерование 4 отверстий до 18, глуб.12)
T5 M6
S6000 M3
G1 Z5.000000
F1300
G1 Z-12.000000
G1 X69.500000 Y47.500000
G17 ;XY plane
G2 X67.500000 Y47.500000 R2.000000
G1 Z5.000000
F1300
G1 Z-12.000000
G1 X70.500000 Y47.500000
G17 ;XY plane
G2 X67.500000 Y47.500000 R3.000000
G1 Z5.000000
F1300
G1 Z-12.000000
G1 X71.500000 Y47.500000
G17 ;XY plane
G2 X67.500000 Y47.500000 R4.000000
G1 Z5.000000
F1300
G1 Z-12.000000
G1 X72.500000 Y47.500000
G17 ;XY plane
G2 X67.500000 Y47.500000 R5.000000
G1 Z5.000000
G1 Z5.000000
F1300
G1 Z-12.000000
G1 X69.500000 Y-47.500000
G17 ;XY plane
G2 X67.500000 Y-47.500000 R2.000000
G1 Z5.000000
F1300
G1 Z-12.000000
G1 X70.500000 Y-47.500000
G17 ;XY plane
G2 X67.500000 Y-47.500000 R3.000000
G1 Z5.000000
F1300
G1 Z-12.000000
G1 X71.500000 Y-47.500000
G17 ;XY plane
G2 X67.500000 Y-47.500000 R4.000000
G1 Z5.000000
F1300
G1 Z-12.000000
G1 X72.500000 Y-47.500000
G17 ;XY plane
G2 X67.500000 Y-47.500000 R5.000000
G1 Z5.000000
G1 Z5.000000
F1300
G1 Z-12.000000
G1 X-65.500000 Y-47.500000
G17 ;XY plane
G2 X-67.500000 Y-47.500000 R2.000000
G1 Z5.000000
F1300
G1 Z-12.000000
G1 X-64.500000 Y-47.500000
G17 ;XY plane
G2 X-67.500000 Y-47.500000 R3.000000
G1 Z5.000000
F1300
G1 Z-12.000000
G1 X-63.500000 Y-47.500000
G17 ;XY plane
G2 X-67.500000 Y-47.500000 R4.000000
G1 Z5.000000
F1300
G1 Z-12.000000
G1 X-62.500000 Y-47.500000
G17 ;XY plane
G2 X-67.500000 Y-47.500000 R5.000000
G1 Z5.000000
G1 Z5.000000
F1300
G1 Z-12.000000
G1 X-65.500000 Y47.500000
G17 ;XY plane
G2 X-67.500000 Y47.500000 R2.000000
G1 Z5.000000
F1300
G1 Z-12.000000
G1 X-64.500000 Y47.500000
G17 ;XY plane
G2 X-67.500000 Y47.500000 R3.000000
G1 Z5.000000
F1300
G1 Z-12.000000
G1 X-63.500000 Y47.500000
G17 ;XY plane
G2 X-67.500000 Y47.500000 R4.000000
G1 Z5.000000
F1300
G1 Z-12.000000
G1 X-62.500000 Y47.500000
G17 ;XY plane
G2 X-67.500000 Y47.500000 R5.000000
G1 Z5.000000
(Фрезерование 4 отверстий до 18, глуб.12)
T5 M6
S6000 M3
G1 Z5.000000
F1300
G1 Z-12.000000
G1 X3.500000 Y13.000000
G17 ;XY plane
G2 X1.500000 Y13.000000 R2.000000
G1 Z5.000000
F1300
G1 Z-12.000000
G1 X4.500000 Y13.000000
G17 ;XY plane
G2 X1.500000 Y13.000000 R3.000000
G1 Z5.000000
F1300
G1 Z-12.000000
G1 X5.500000 Y13.000000
G17 ;XY plane
G2 X1.500000 Y13.000000 R4.000000
G1 Z5.000000
F1300
G1 Z-12.000000
G1 X6.500000 Y13.000000
G17 ;XY plane
G2 X1.500000 Y13.000000 R5.000000
G1 Z5.000000
G1 Z5.000000
F1300
G1 Z-12.000000
G1 X3.500000 Y-13.000000
G17 ;XY plane
G2 X1.500000 Y-13.000000 R2.000000
G1 Z5.000000
F1300
G1 Z-12.000000
G1 X4.500000 Y-13.000000
G17 ;XY plane
G2 X1.500000 Y-13.000000 R3.000000
G1 Z5.000000
F1300
G1 Z-12.000000
G1 X5.500000 Y-13.000000
G17 ;XY plane
G2 X1.500000 Y-13.000000 R4.000000
G1 Z5.000000
F1300
G1 Z-12.000000
G1 X6.500000 Y-13.000000
G17 ;XY plane
G2 X1.500000 Y-13.000000 R5.000000
G1 Z5.000000
G1 Z5.000000
F1300
G1 Z-12.000000
G1 X-36.500000 Y-13.000000
G17 ;XY plane
G2 X-38.500000 Y-13.000000 R2.000000
G1 Z5.000000
F1300
G1 Z-12.000000
G1 X-35.500000 Y-13.000000
G17 ;XY plane
G2 X-38.500000 Y-13.000000 R3.000000
G1 Z5.000000
F1300
G1 Z-12.000000
G1 X-34.500000 Y-13.000000
G17 ;XY plane
G2 X-38.500000 Y-13.000000 R4.000000
G1 Z5.000000
F1300
G1 Z-12.000000
G1 X-33.500000 Y-13.000000
G17 ;XY plane
G2 X-38.500000 Y-13.000000 R5.000000
G1 Z5.000000
G1 Z5.000000
F1300
G1 Z-12.000000
G1 X-36.500000 Y13.000000
G17 ;XY plane
G2 X-38.500000 Y13.000000 R2.000000
G1 Z5.000000
F1300
G1 Z-12.000000
G1 X-35.500000 Y13.000000
G17 ;XY plane
G2 X-38.500000 Y13.000000 R3.000000
G1 Z5.000000
F1300
G1 Z-12.000000
G1 X-34.500000 Y13.000000
G17 ;XY plane
G2 X-38.500000 Y13.000000 R4.000000
G1 Z5.000000
F1300
G1 Z-12.000000
G1 X-33.500000 Y13.000000
G17 ;XY plane
G2 X-38.500000 Y13.000000 R5.000000
G1 Z5.000000
(Сверление 2 отверстий 14 мм под резьбу на глубину 20 мм
T6 M6
S3000 M3
G1 Z5.000000
G1 X-18.000000 Y-40.000000
F1150
G1 Z-16.000000
G1 Z5.000000
G1 Z5.000000
G1 X-18.000000 Y40.000000
F1150
G1 Z-16.000000
G1 Z5.000000
(Нарезание резьбы М16 в 2 отверстиях)
T6 M6
S200 M3
G1 Z5.000000
G1 X-18.000000 Y-40.000000
G84 X-18 Y-40 Z-16 R5 F886.00 P0.5
G80
G1 Z5.000000
G1 Z5.000000
G1 X-18.000000 Y40.000000
G84 X-18 Y40 Z-16 R5 F886.00 P0.5
G80
G1 Z5.000000
G1 Z20.000000
M30
